[{"OBJECT_NAME":"SL-8 R/B","OBJECT_ID":"1988-053B","EPOCH":"2026-03-28T07:07:33.736800","MEAN_MOTION":14.38928686,"ECCENTRICITY":0.00214807,"INCLINATION":74.0455,"RA_OF_ASC_NODE":78.164,"ARG_OF_PERICENTER":254.9909,"MEAN_ANOMALY":206.7632,"EPHEMERIS_TYPE":0,"CLASSIFICATION_TYPE":"U","NORAD_CAT_ID":19257,"ELEMENT_SET_NO":999,"REV_AT_EPOCH":97927,"BSTAR":0.00012717692,"MEAN_MOTION_DOT":3.66e-6,"MEAN_MOTION_DDOT":0},{"OBJECT_NAME":"COSMOS 1975","OBJECT_ID":"1988-093A","EPOCH":"2026-03-28T02:59:06.775008","MEAN_MOTION":15.28312271,"ECCENTRICITY":0.00133792,"INCLINATION":82.5164,"RA_OF_ASC_NODE":99.172,"ARG_OF_PERICENTER":104.4955,"MEAN_ANOMALY":255.777,"EPHEMERIS_TYPE":0,"CLASSIFICATION_TYPE":"U","NORAD_CAT_ID":19573,"ELEMENT_SET_NO":999,"REV_AT_EPOCH":2222,"BSTAR":0.000248897,"MEAN_MOTION_DOT":6.913e-5,"MEAN_MOTION_DDOT":0},{"OBJECT_NAME":"SL-14 R/B","OBJECT_ID":"1988-093B","EPOCH":"2026-03-28T06:28:18.441696","MEAN_MOTION":14.85678447,"ECCENTRICITY":0.00201611,"INCLINATION":82.5338,"RA_OF_ASC_NODE":24.6047,"ARG_OF_PERICENTER":341.0034,"MEAN_ANOMALY":178.4618,"EPHEMERIS_TYPE":0,"CLASSIFICATION_TYPE":"U","NORAD_CAT_ID":19574,"ELEMENT_SET_NO":999,"REV_AT_EPOCH":377,"BSTAR":6.8751854e-5,"MEAN_MOTION_DOT":6.22e-6,"MEAN_MOTION_DDOT":0},{"OBJECT_NAME":"SL-16 R/B","OBJECT_ID":"1988-102B","EPOCH":"2026-03-28T04:47:02.562144","MEAN_MOTION":14.16153627,"ECCENTRICITY":0.00150843,"INCLINATION":70.9971,"RA_OF_ASC_NODE":112.551,"ARG_OF_PERICENTER":333.8286,"MEAN_ANOMALY":26.2073,"EPHEMERIS_TYPE":0,"CLASSIFICATION_TYPE":"U","NORAD_CAT_ID":19650,"ELEMENT_SET_NO":999,"REV_AT_EPOCH":92951,"BSTAR":-5.9344307e-5,"MEAN_MOTION_DOT":-1.65e-6,"MEAN_MOTION_DDOT":0},{"OBJECT_NAME":"INTERCOSMOS 24","OBJECT_ID":"1989-080A","EPOCH":"2026-03-28T07:26:37.347936","MEAN_MOTION":12.5958192,"ECCENTRICITY":0.11868443,"INCLINATION":82.6011,"RA_OF_ASC_NODE":92.2747,"ARG_OF_PERICENTER":249.5606,"MEAN_ANOMALY":97.4325,"EPHEMERIS_TYPE":0,"CLASSIFICATION_TYPE":"U","NORAD_CAT_ID":20261,"ELEMENT_SET_NO":999,"REV_AT_EPOCH":66914,"BSTAR":0.00016758796,"MEAN_MOTION_DOT":5.66e-6,"MEAN_MOTION_DDOT":0},{"OBJECT_NAME":"SL-14 R/B","OBJECT_ID":"1989-080C","EPOCH":"2026-03-28T06:43:26.422752","MEAN_MOTION":12.5051164,"ECCENTRICITY":0.12308911,"INCLINATION":82.5956,"RA_OF_ASC_NODE":161.2571,"ARG_OF_PERICENTER":142.2771,"MEAN_ANOMALY":227.1457,"EPHEMERIS_TYPE":0,"CLASSIFICATION_TYPE":"U","NORAD_CAT_ID":20262,"ELEMENT_SET_NO":999,"REV_AT_EPOCH":66247,"BSTAR":0.00010966065,"MEAN_MOTION_DOT":3.92e-6,"MEAN_MOTION_DDOT":0},{"OBJECT_NAME":"DELTA 1 R/B","OBJECT_ID":"1989-089B","EPOCH":"2026-03-28T04:12:19.090944","MEAN_MOTION":14.50677863,"ECCENTRICITY":0.00705436,"INCLINATION":97.0693,"RA_OF_ASC_NODE":291.6716,"ARG_OF_PERICENTER":64.7375,"MEAN_ANOMALY":296.1112,"EPHEMERIS_TYPE":0,"CLASSIFICATION_TYPE":"U","NORAD_CAT_ID":20323,"ELEMENT_SET_NO":999,"REV_AT_EPOCH":89841,"BSTAR":9.4906204e-5,"MEAN_MOTION_DOT":3.5e-6,"MEAN_MOTION_DDOT":0},{"OBJECT_NAME":"ARIANE 40 R/B","OBJECT_ID":"1990-005H","EPOCH":"2026-03-28T03:49:07.084992","MEAN_MOTION":14.39882225,"ECCENTRICITY":0.00109477,"INCLINATION":98.3045,"RA_OF_ASC_NODE":147.2668,"ARG_OF_PERICENTER":144.533,"MEAN_ANOMALY":215.6589,"EPHEMERIS_TYPE":0,"CLASSIFICATION_TYPE":"U","NORAD_CAT_ID":20443,"ELEMENT_SET_NO":999,"REV_AT_EPOCH":89546,"BSTAR":9.4140391e-5,"MEAN_MOTION_DOT":2.54e-6,"MEAN_MOTION_DDOT":0},{"OBJECT_NAME":"DELTA 2 R/B(1)","OBJECT_ID":"1990-008B","EPOCH":"2026-03-27T23:13:48.810720","MEAN_MOTION":15.58359382,"ECCENTRICITY":0.0078041,"INCLINATION":35.6038,"RA_OF_ASC_NODE":54.6827,"ARG_OF_PERICENTER":69.624,"MEAN_ANOMALY":291.2859,"EPHEMERIS_TYPE":0,"CLASSIFICATION_TYPE":"U","NORAD_CAT_ID":20453,"ELEMENT_SET_NO":999,"REV_AT_EPOCH":92898,"BSTAR":0.00076859,"MEAN_MOTION_DOT":0.00070325,"MEAN_MOTION_DDOT":0},{"OBJECT_NAME":"COSMOS 2058","OBJECT_ID":"1990-010A","EPOCH":"2026-03-28T02:52:03.886752","MEAN_MOTION":15.11484298,"ECCENTRICITY":0.00074314,"INCLINATION":82.4687,"RA_OF_ASC_NODE":29.2669,"ARG_OF_PERICENTER":270.8689,"MEAN_ANOMALY":89.169,"EPHEMERIS_TYPE":0,"CLASSIFICATION_TYPE":"U","NORAD_CAT_ID":20465,"ELEMENT_SET_NO":999,"REV_AT_EPOCH":94502,"BSTAR":0.00029807223,"MEAN_MOTION_DOT":5.074e-5,"MEAN_MOTION_DDOT":0},{"OBJECT_NAME":"SL-14 R/B","OBJECT_ID":"1990-010B","EPOCH":"2026-03-28T04:00:44.218944","MEAN_MOTION":14.83585646,"ECCENTRICITY":0.0018573,"INCLINATION":82.4996,"RA_OF_ASC_NODE":250.027,"ARG_OF_PERICENTER":236.6748,"MEAN_ANOMALY":123.2689,"EPHEMERIS_TYPE":0,"CLASSIFICATION_TYPE":"U","NORAD_CAT_ID":20466,"ELEMENT_SET_NO":999,"REV_AT_EPOCH":93122,"BSTAR":6.2921909e-5,"MEAN_MOTION_DOT":5.43e-6,"MEAN_MOTION_DDOT":0},{"OBJECT_NAME":"SL-14 R/B","OBJECT_ID":"1990-018B","EPOCH":"2026-03-28T01:37:30.473184","MEAN_MOTION":14.82162673,"ECCENTRICITY":0.00169979,"INCLINATION":82.5236,"RA_OF_ASC_NODE":205.9151,"ARG_OF_PERICENTER":35.9464,"MEAN_ANOMALY":324.289,"EPHEMERIS_TYPE":0,"CLASSIFICATION_TYPE":"U","NORAD_CAT_ID":20511,"ELEMENT_SET_NO":999,"REV_AT_EPOCH":92530,"BSTAR":5.3461483e-5,"MEAN_MOTION_DOT":4.5e-6,"MEAN_MOTION_DDOT":0},{"OBJECT_NAME":"HST","OBJECT_ID":"1990-037B","EPOCH":"2026-03-28T05:03:51.440256","MEAN_MOTION":15.29763624,"ECCENTRICITY":0.00016683,"INCLINATION":28.4721,"RA_OF_ASC_NODE":273.6275,"ARG_OF_PERICENTER":343.6247,"MEAN_ANOMALY":16.4295,"EPHEMERIS_TYPE":0,"CLASSIFICATION_TYPE":"U","NORAD_CAT_ID":20580,"ELEMENT_SET_NO":999,"REV_AT_EPOCH":77615,"BSTAR":0.00028741398,"MEAN_MOTION_DOT":8.763e-5,"MEAN_MOTION_DDOT":0},{"OBJECT_NAME":"SL-16 R/B","OBJECT_ID":"1990-046B","EPOCH":"2026-03-28T05:14:34.410912","MEAN_MOTION":14.15015839,"ECCENTRICITY":0.00163242,"INCLINATION":70.9975,"RA_OF_ASC_NODE":258.9963,"ARG_OF_PERICENTER":275.3307,"MEAN_ANOMALY":84.5953,"EPHEMERIS_TYPE":0,"CLASSIFICATION_TYPE":"U","NORAD_CAT_ID":20625,"ELEMENT_SET_NO":999,"REV_AT_EPOCH":85101,"BSTAR":0.00015715555,"MEAN_MOTION_DOT":2.57e-6,"MEAN_MOTION_DDOT":0},{"OBJECT_NAME":"COSMOS 2084","OBJECT_ID":"1990-055A","EPOCH":"2026-03-27T22:03:15.066432","MEAN_MOTION":15.05747385,"ECCENTRICITY":0.0014196,"INCLINATION":62.7892,"RA_OF_ASC_NODE":273.3985,"ARG_OF_PERICENTER":195.6384,"MEAN_ANOMALY":164.428,"EPHEMERIS_TYPE":0,"CLASSIFICATION_TYPE":"U","NORAD_CAT_ID":20663,"ELEMENT_SET_NO":999,"REV_AT_EPOCH":93906,"BSTAR":0.00019688,"MEAN_MOTION_DOT":2.668e-5,"MEAN_MOTION_DDOT":0},{"OBJECT_NAME":"SL-6 R/B(2)","OBJECT_ID":"1990-055D","EPOCH":"2026-03-28T06:13:03.271296","MEAN_MOTION":15.03682486,"ECCENTRICITY":0.00278331,"INCLINATION":62.7831,"RA_OF_ASC_NODE":190.6977,"ARG_OF_PERICENTER":351.2759,"MEAN_ANOMALY":8.7853,"EPHEMERIS_TYPE":0,"CLASSIFICATION_TYPE":"U","NORAD_CAT_ID":20666,"ELEMENT_SET_NO":999,"REV_AT_EPOCH":94098,"BSTAR":0.00016524363,"MEAN_MOTION_DOT":2.09e-5,"MEAN_MOTION_DDOT":0},{"OBJECT_NAME":"SL-8 R/B","OBJECT_ID":"1990-078B","EPOCH":"2026-03-28T02:50:02.861088","MEAN_MOTION":14.89612537,"ECCENTRICITY":0.03585565,"INCLINATION":82.9022,"RA_OF_ASC_NODE":234.7274,"ARG_OF_PERICENTER":311.8564,"MEAN_ANOMALY":45.2553,"EPHEMERIS_TYPE":0,"CLASSIFICATION_TYPE":"U","NORAD_CAT_ID":20775,"ELEMENT_SET_NO":999,"REV_AT_EPOCH":81204,"BSTAR":0.00036185933,"MEAN_MOTION_DOT":0.00012216,"MEAN_MOTION_DDOT":0}]
